{
  "type": "FeatureCollection",
  "features": [
    {
      "type": "Feature",
      "properties": {
        "norad_id": 54741,
        "name": "GALAXY 35 (G-35)",
        "group": "intelsat",
        "lat": -0.02303448754932022,
        "lon": -76.78252130410218,
        "alt_km": 35776.97997774225,
        "timestamp": "2025-12-22T18:58:53.088932+00:00",
        "meta_object_name": "GALAXY 35 (G-35)",
        "meta_object_id": "2022-170A",
        "meta_epoch": "2025-12-22T06:05:19.580640",
        "meta_mean_motion": 1.00271799,
        "meta_eccentricity": 0.00021835,
        "meta_inclination": 0.0191,
        "meta_ra_of_asc_node": 81.1113,
        "meta_arg_of_pericenter": 192.6844,
        "meta_mean_anomaly": 175.5056,
        "meta_ephemeris_type": 0,
        "meta_classification_type": "U",
        "meta_norad_cat_id": 54741,
        "meta_element_set_no": 999,
        "meta_rev_at_epoch": 1112,
        "meta_bstar": 0,
        "meta_mean_motion_dot": -1.41e-06,
        "meta_mean_motion_ddot": 0,
        "tle_line1": "1 54741U 22170A   25356.25369885 -.00000141  00000+0  00000+0 0  9995",
        "tle_line2": "2 54741   0.0191  81.1113 0002183 192.6844 175.5056  1.00271799 11127"
      },
      "geometry": {
        "type": "Point",
        "coordinates": [
          -76.78252130410218,
          -0.02303448754932022
        ]
      }
    },
    {
      "type": "Feature",
      "properties": {
        "norad_id": 54742,
        "name": "GALAXY 36 (G-36)",
        "group": "intelsat",
        "lat": -0.036179471471306276,
        "lon": -72.70984488053409,
        "alt_km": 35785.978451836985,
        "timestamp": "2025-12-22T18:58:53.088944+00:00",
        "meta_object_name": "GALAXY 36 (G-36)",
        "meta_object_id": "2022-170B",
        "meta_epoch": "2025-12-22T06:07:15.906144",
        "meta_mean_motion": 1.00268751,
        "meta_eccentricity": 4.422e-05,
        "meta_inclination": 0.0153,
        "meta_ra_of_asc_node": 42.4265,
        "meta_arg_of_pericenter": 302.7465,
        "meta_mean_anomaly": 108.7013,
        "meta_ephemeris_type": 0,
        "meta_classification_type": "U",
        "meta_norad_cat_id": 54742,
        "meta_element_set_no": 999,
        "meta_rev_at_epoch": 1100,
        "meta_bstar": 0,
        "meta_mean_motion_dot": 0,
        "meta_mean_motion_ddot": 0,
        "tle_line1": "1 54742U 22170B   25356.25504521  .00000000  00000+0  00000+0 0  9997",
        "tle_line2": "2 54742   0.0153  42.4265 0000442 302.7465 108.7013  1.00268751 11005"
      },
      "geometry": {
        "type": "Point",
        "coordinates": [
          -72.70984488053409,
          -0.036179471471306276
        ]
      }
    },
    {
      "type": "Feature",
      "properties": {
        "norad_id": 57493,
        "name": "GALAXY 37 (G-37)",
        "group": "intelsat",
        "lat": -0.023456918115019213,
        "lon": -110.71357893482623,
        "alt_km": 35778.73892683568,
        "timestamp": "2025-12-22T18:58:53.088956+00:00",
        "meta_object_name": "GALAXY 37 (G-37)",
        "meta_object_id": "2023-112A",
        "meta_epoch": "2025-12-22T06:22:38.830080",
        "meta_mean_motion": 1.00271254,
        "meta_eccentricity": 0.00019569,
        "meta_inclination": 0.0079,
        "meta_ra_of_asc_node": 32.7718,
        "meta_arg_of_pericenter": 242.4103,
        "meta_mean_anomaly": 144.545,
        "meta_ephemeris_type": 0,
        "meta_classification_type": "U",
        "meta_norad_cat_id": 57493,
        "meta_element_set_no": 999,
        "meta_rev_at_epoch": 876,
        "meta_bstar": 0,
        "meta_mean_motion_dot": 7e-07,
        "meta_mean_motion_ddot": 0,
        "tle_line1": "1 57493U 23112A   25356.26572720  .00000070  00000+0  00000+0 0  9994",
        "tle_line2": "2 57493   0.0079  32.7718 0001956 242.4103 144.5450  1.00271254  8767"
      },
      "geometry": {
        "type": "Point",
        "coordinates": [
          -110.71357893482623,
          -0.023456918115019213
        ]
      }
    }
  ]
}